[{"OBJECT_NAME":"SPACEMOBILE-003","OBJECT_ID":"2024-163A","EPOCH":"2026-03-09T22:12:19.490976","MEAN_MOTION":15.21123945,"ECCENTRICITY":0.00061285,"INCLINATION":52.9672,"RA_OF_ASC_NODE":45.9892,"ARG_OF_PERICENTER":185.2661,"MEAN_ANOMALY":174.827,"EPHEMERIS_TYPE":0,"CLASSIFICATION_TYPE":"U","NORAD_CAT_ID":61045,"ELEMENT_SET_NO":999,"REV_AT_EPOCH":8266,"BSTAR":0.00043932045,"MEAN_MOTION_DOT":9.59e-5,"MEAN_MOTION_DDOT":0},{"OBJECT_NAME":"TRANSPORTER-15 OBJECT H","OBJECT_ID":"2025-276H","EPOCH":"2026-03-09T17:32:53.221056","MEAN_MOTION":15.1998776,"ECCENTRICITY":0.00060412,"INCLINATION":97.4225,"RA_OF_ASC_NODE":143.9657,"ARG_OF_PERICENTER":14.2077,"MEAN_ANOMALY":345.9327,"EPHEMERIS_TYPE":0,"CLASSIFICATION_TYPE":"U","NORAD_CAT_ID":66673,"ELEMENT_SET_NO":999,"REV_AT_EPOCH":1532,"BSTAR":0.00046258032,"MEAN_MOTION_DOT":9.902e-5,"MEAN_MOTION_DDOT":0}]
